[{"OBJECT_NAME":"STARLINK-31164","OBJECT_ID":"2024-005F","EPOCH":"2026-03-09T11:09:39.527712","MEAN_MOTION":15.26744385,"ECCENTRICITY":0.00016904,"INCLINATION":43.0011,"RA_OF_ASC_NODE":220.6476,"ARG_OF_PERICENTER":274.9327,"MEAN_ANOMALY":85.1331,"EPHEMERIS_TYPE":0,"CLASSIFICATION_TYPE":"U","NORAD_CAT_ID":58733,"ELEMENT_SET_NO":999,"REV_AT_EPOCH":12040,"BSTAR":0.00019397223,"MEAN_MOTION_DOT":4.947e-5,"MEAN_MOTION_DDOT":0},{"OBJECT_NAME":"OBJECT D","OBJECT_ID":"2025-197D","EPOCH":"2026-03-09T23:30:56.303712","MEAN_MOTION":15.25287442,"ECCENTRICITY":0.00144425,"INCLINATION":97.4091,"RA_OF_ASC_NODE":257.3677,"ARG_OF_PERICENTER":3.398,"MEAN_ANOMALY":356.7353,"EPHEMERIS_TYPE":0,"CLASSIFICATION_TYPE":"U","NORAD_CAT_ID":65491,"ELEMENT_SET_NO":999,"REV_AT_EPOCH":2822,"BSTAR":0.00037200129,"MEAN_MOTION_DOT":9.321e-5,"MEAN_MOTION_DDOT":0}]
